[{"OBJECT_NAME":"STARLINK-34503","OBJECT_ID":"2025-129J","EPOCH":"2026-03-09T10:04:05.576736","MEAN_MOTION":14.98326836,"ECCENTRICITY":0.00034507,"INCLINATION":70.0009,"RA_OF_ASC_NODE":75.2643,"ARG_OF_PERICENTER":269.3596,"MEAN_ANOMALY":90.7168,"EPHEMERIS_TYPE":0,"CLASSIFICATION_TYPE":"U","NORAD_CAT_ID":64420,"ELEMENT_SET_NO":999,"REV_AT_EPOCH":4118,"BSTAR":0.00012019618,"MEAN_MOTION_DOT":1.341e-5,"MEAN_MOTION_DDOT":0},{"OBJECT_NAME":"ATLAS 28E DEB","OBJECT_ID":"1990-031F","EPOCH":"2026-03-09T23:20:22.354944","MEAN_MOTION":14.8907054,"ECCENTRICITY":0.00492653,"INCLINATION":89.9045,"RA_OF_ASC_NODE":245.9973,"ARG_OF_PERICENTER":224.0293,"MEAN_ANOMALY":135.7008,"EPHEMERIS_TYPE":0,"CLASSIFICATION_TYPE":"U","NORAD_CAT_ID":20565,"ELEMENT_SET_NO":999,"REV_AT_EPOCH":36885,"BSTAR":0.00032450895,"MEAN_MOTION_DOT":3.143e-5,"MEAN_MOTION_DDOT":0}]
